ONEWEB-0456             
1 51646U 22012AA  24044.90257224  .00000547  00000+0  15309-2 0  9999
2 51646  87.8915 205.9519 0001497  84.4699 275.6599 13.10370450 97467
ONEWEB-0457             
1 51647U 22012AB  24044.87982238  .00000295  00000+0  81019-3 0  9998
2 51647  87.8931 205.9678 0001479 113.5965 246.5317 13.10375278 97460
ONEWEB-0458             
1 51648U 22012AC  24044.90095517  .00000590  00000+0  16551-2 0  9994
2 51648  87.8927 205.9778 0001734 101.0858 259.0464 13.10372224 97420
ONEWEB-0461             
1 51649U 22012AD  24044.87103793 -.00000134  00000+0 -37937-3 0  9995
2 51649  87.9246 175.7741 0001619 111.3738 248.7566 13.17648799101382
ONEWEB-0463             
1 51650U 22012AE  24044.85362949  .00000045  00000+0  82358-4 0  9992
2 51650  87.9251 175.8189 0001607 108.8713 251.2593 13.17648178101164
ONEWEB-0464             
1 51651U 22012AF  24044.89771103  .00000667  00000+0  18747-2 0  9992
2 51651  87.8926 205.9669 0001756  84.0297 276.1030 13.10373050 97442
ONEWEB-0468             
1 51652U 22012AG  24044.90419571  .00000473  00000+0  13183-2 0  9997
2 51652  87.8927 205.9589 0001582  95.6493 264.4815 13.10370380 97420
ONEWEB-0473             
1 51653U 22012AH  24044.88957864  .00000560  00000+0  15667-2 0  9993
2 51653  87.8930 205.9652 0001669  94.8047 265.3271 13.10373532 97426
